[{"OBJECT_NAME":"ONEWEB-0522","OBJECT_ID":"2022-138AD","EPOCH":"2026-03-09T17:55:10.899552","MEAN_MOTION":13.19725112,"ECCENTRICITY":0.00016062,"INCLINATION":87.924,"RA_OF_ASC_NODE":324.7616,"ARG_OF_PERICENTER":85.5442,"MEAN_ANOMALY":274.5874,"EPHEMERIS_TYPE":0,"CLASSIFICATION_TYPE":"U","NORAD_CAT_ID":54140,"ELEMENT_SET_NO":999,"REV_AT_EPOCH":16369,"BSTAR":-0.00050448879,"MEAN_MOTION_DOT":-1.89e-6,"MEAN_MOTION_DDOT":0},{"OBJECT_NAME":"COSMOS 1691 DEB","OBJECT_ID":"1985-094P","EPOCH":"2026-03-09T09:31:23.633184","MEAN_MOTION":12.69123476,"ECCENTRICITY":0.02586158,"INCLINATION":82.7307,"RA_OF_ASC_NODE":48.6536,"ARG_OF_PERICENTER":274.5257,"MEAN_ANOMALY":202.2775,"EPHEMERIS_TYPE":0,"CLASSIFICATION_TYPE":"U","NORAD_CAT_ID":16270,"ELEMENT_SET_NO":999,"REV_AT_EPOCH":86912,"BSTAR":0.00083876094,"MEAN_MOTION_DOT":1.97e-6,"MEAN_MOTION_DDOT":0}]
